[{"OBJECT_NAME":"STARLINK-5734","OBJECT_ID":"2023-020AV","EPOCH":"2026-03-09T02:54:07.991712","MEAN_MOTION":15.02534125,"ECCENTRICITY":0.00011838,"INCLINATION":43.0053,"RA_OF_ASC_NODE":354.7649,"ARG_OF_PERICENTER":266.0726,"MEAN_ANOMALY":93.9981,"EPHEMERIS_TYPE":0,"CLASSIFICATION_TYPE":"U","NORAD_CAT_ID":55612,"ELEMENT_SET_NO":999,"REV_AT_EPOCH":16898,"BSTAR":-1.9338209e-5,"MEAN_MOTION_DOT":-4.65e-6,"MEAN_MOTION_DDOT":0},{"OBJECT_NAME":"COSMOS 397 DEB","OBJECT_ID":"1971-015X","EPOCH":"2026-03-09T14:49:46.278336","MEAN_MOTION":13.47468411,"ECCENTRICITY":0.0708542,"INCLINATION":65.8315,"RA_OF_ASC_NODE":149.8818,"ARG_OF_PERICENTER":13.1255,"MEAN_ANOMALY":348.7206,"EPHEMERIS_TYPE":0,"CLASSIFICATION_TYPE":"U","NORAD_CAT_ID":5098,"ELEMENT_SET_NO":999,"REV_AT_EPOCH":63764,"BSTAR":0.0005615,"MEAN_MOTION_DOT":1.586e-5,"MEAN_MOTION_DDOT":0}]
